[{"OBJECT_NAME":"STARLINK-32484","OBJECT_ID":"2024-224X","EPOCH":"2026-03-09T22:20:38.389632","MEAN_MOTION":15.27613951,"ECCENTRICITY":6.43e-5,"INCLINATION":42.9965,"RA_OF_ASC_NODE":157.0185,"ARG_OF_PERICENTER":325.6445,"MEAN_ANOMALY":34.4365,"EPHEMERIS_TYPE":0,"CLASSIFICATION_TYPE":"U","NORAD_CAT_ID":62160,"ELEMENT_SET_NO":999,"REV_AT_EPOCH":7251,"BSTAR":0.0010017943,"MEAN_MOTION_DOT":0.00027436,"MEAN_MOTION_DDOT":0},{"OBJECT_NAME":"TEVEL2-9","OBJECT_ID":"2025-052AD","EPOCH":"2026-03-09T16:51:18.321696","MEAN_MOTION":15.28633834,"ECCENTRICITY":0.000799,"INCLINATION":97.4057,"RA_OF_ASC_NODE":324.3929,"ARG_OF_PERICENTER":124.2475,"MEAN_ANOMALY":235.9522,"EPHEMERIS_TYPE":0,"CLASSIFICATION_TYPE":"U","NORAD_CAT_ID":63237,"ELEMENT_SET_NO":999,"REV_AT_EPOCH":5481,"BSTAR":0.00067240159,"MEAN_MOTION_DOT":0.00018694,"MEAN_MOTION_DDOT":0}]
